ORBCOMM FM25            
1 25479U 98053E   25124.64928452  .00001766  00000+0  62552-3 0  9998
2 25479  45.0054 113.7765 0004869 355.8350   4.2457 14.37969809391475
ORBCOMM FM26            
1 25480U 98053F   25124.63253756  .00001385  00000+0  50978-3 0  9993
2 25480  45.0058 110.0034 0005760  22.6103 337.4998 14.37047143391385
ORBCOMM FM27            
1 25481U 98053G   25124.01254849  .00001865  00000+0  65768-3 0  9996
2 25481  45.0035 117.0139 0002537 303.6937  56.3669 14.37993124391314
ORBCOMM FM28            
1 25482U 98053H   25124.82035183  .00001592  00000+0  56584-3 0  9997
2 25482  45.0059  50.7489 0004153  58.5531 301.5723 14.38203116392115
ORBCOMM FM30            
1 25980U 99065A   25124.83601809  .00001503  00000+0  54740-3 0  9993
2 25980  45.0318 294.8982 0007106 153.7835 206.3374 14.37216611328218
ORBCOMM FM31            
1 25981U 99065B   25124.80751006  .00001469  00000+0  53679-3 0  9997
2 25981  45.0231 288.5336 0004666 177.7645 182.3225 14.37163522327768
ORBCOMM FM32            
1 25982U 99065C   25124.82507604  .00001508  00000+0  56026-3 0  9996
2 25982  45.0162 304.7359 0006672 171.3851 188.7112 14.36200620328368
